[{"OBJECT_NAME":"JILIN-1 GAOFEN 03D47","OBJECT_ID":"2022-167L","EPOCH":"2026-03-09T22:56:46.924224","MEAN_MOTION":15.31686941,"ECCENTRICITY":0.00089304,"INCLINATION":97.6835,"RA_OF_ASC_NODE":234.6581,"ARG_OF_PERICENTER":110.4031,"MEAN_ANOMALY":249.8169,"EPHEMERIS_TYPE":0,"CLASSIFICATION_TYPE":"U","NORAD_CAT_ID":54692,"ELEMENT_SET_NO":999,"REV_AT_EPOCH":18014,"BSTAR":0.00047294748,"MEAN_MOTION_DOT":0.00014417,"MEAN_MOTION_DDOT":0},{"OBJECT_NAME":"STARLINK-32340","OBJECT_ID":"2024-158U","EPOCH":"2026-03-09T09:31:32.202336","MEAN_MOTION":15.30171823,"ECCENTRICITY":0.00013073,"INCLINATION":53.1614,"RA_OF_ASC_NODE":67.0145,"ARG_OF_PERICENTER":89.3267,"MEAN_ANOMALY":270.7884,"EPHEMERIS_TYPE":0,"CLASSIFICATION_TYPE":"U","NORAD_CAT_ID":61008,"ELEMENT_SET_NO":999,"REV_AT_EPOCH":8553,"BSTAR":-7.8110972e-5,"MEAN_MOTION_DOT":-2.67e-5,"MEAN_MOTION_DDOT":0}]
